{
    "links": {
        "self": "http://www.neowsapp.com/rest/v1/neo/3753787?api_key=iIulBulltgU6a56xZRHN4H3l9WmuAYTsLGpBGhQ2"
    },
    "id": "3753787",
    "neo_reference_id": "3753787",
    "name": "(2016 LW8)",
    "designation": "2016 LW8",
    "nasa_jpl_url": "http://ssd.jpl.nasa.gov/sbdb.cgi?sstr=3753787",
    "absolute_magnitude_h": 24.1,
    "estimated_diameter": {
        "kilometers": {
            "estimated_diameter_min": 0.040230458,
            "estimated_diameter_max": 0.0899580388
        },
        "meters": {
            "estimated_diameter_min": 40.2304579834,
            "estimated_diameter_max": 89.9580388169
        },
        "miles": {
            "estimated_diameter_min": 0.0249980399,
            "estimated_diameter_max": 0.0558973165
        },
        "feet": {
            "estimated_diameter_min": 131.9896957704,
            "estimated_diameter_max": 295.1379320721
        }
    },
    "is_potentially_hazardous_asteroid": false,
    "close_approach_data": [
        {
            "close_approach_date": "2016-05-30",
            "close_approach_date_full": "2016-May-30 23:57",
            "epoch_date_close_approach": 1464652620000,
            "relative_velocity": {
                "kilometers_per_second": "8.6753431342",
                "kilometers_per_hour": "31231.2352831039",
                "miles_per_hour": "19405.875056882"
            },
            "miss_distance": {
                "astronomical": "0.0562251324",
                "lunar": "21.8715765036",
                "kilometers": "8411160.047507988",
                "miles": "5226452.4996987144"
            },
            "orbiting_body": "Earth"
        }
    ],
    "orbital_data": {
        "orbit_id": "5",
        "orbit_determination_date": "2017-04-06 08:25:31",
        "first_observation_date": "2016-06-04",
        "last_observation_date": "2016-06-14",
        "data_arc_in_days": 10,
        "observations_used": 33,
        "orbit_uncertainty": "8",
        "minimum_orbit_intersection": ".0159863",
        "jupiter_tisserand_invariant": "3.827",
        "epoch_osculation": "2457547.5",
        "eccentricity": ".4699363988248586",
        "semi_major_axis": "1.881370642185606",
        "inclination": "1.106423997615088",
        "ascending_node_longitude": "287.9744917572964",
        "orbital_period": "942.5620958414073",
        "perihelion_distance": ".9972460977420908",
        "perihelion_argument": "288.0201682650055",
        "aphelion_distance": "2.765495186629122",
        "perihelion_time": "2457512.578042437085",
        "mean_anomaly": "13.33801218839242",
        "mean_motion": ".3819377010685273",
        "equinox": "J2000",
        "orbit_class": {
            "orbit_class_type": "APO",
            "orbit_class_description": "Near-Earth asteroid orbits which cross the Earth’s orbit similar to that of 1862 Apollo",
            "orbit_class_range": "a (semi-major axis) > 1.0 AU; q (perihelion) < 1.017 AU"
        }
    },
    "is_sentry_object": false
}